{
  "norad_id": 65486,
  "name": "SHIYAN-29",
  "history": [
    {
      "epoch": "2026-03-28T18:39:35.514432",
      "apogee_km": 35825.34304012066,
      "perigee_km": 35742.78270681642,
      "latitude_deg": -28.71882497093036,
      "longitude_deg": 83.23946047993377,
      "semi_major_axis_km": 42162.19987346854,
      "eccentricity": 0.00097908,
      "inclination_deg": 28.7378,
      "raan_deg": 19.5487,
      "arg_perigee_deg": 181.385,
      "mean_anomaly_deg": 0.488,
      "mean_motion_rev_day": 1.00280818
    }
  ]
}